CCSDS_OMM_VERS = 2.0
CREATION_DATE  = 
ORIGINATOR     = 

OBJECT_NAME    = STARLINK-35420
OBJECT_ID      = 2025-245AC
CENTER_NAME    = EARTH
REF_FRAME      = TEME
TIME_SYSTEM    = UTC
MEAN_ELEMENT_THEORY = SGP/SGP4

EPOCH          = 2025-11-21T00:00:02.000160
MEAN_MOTION    = 15.49267288
ECCENTRICITY   = .00007105
INCLINATION    = 53.1606
RA_OF_ASC_NODE = 72.1293
ARG_OF_PERICENTER = 92.2250
MEAN_ANOMALY   = 62.7993

EPHEMERIS_TYPE = 0
CLASSIFICATION_TYPE = U
NORAD_CAT_ID   = 66260
ELEMENT_SET_NO = 999
REV_AT_EPOCH   = 461
BSTAR          = .65677752E-3
MEAN_MOTION_DOT = .36195E-3
MEAN_MOTION_DDOT = 0

CCSDS_OMM_VERS = 2.0
CREATION_DATE  = 
ORIGINATOR     = 

OBJECT_NAME    = STARLINK-35536
OBJECT_ID      = 2025-245AD
CENTER_NAME    = EARTH
REF_FRAME      = TEME
TIME_SYSTEM    = UTC
MEAN_ELEMENT_THEORY = SGP/SGP4

EPOCH          = 2025-11-21T00:00:02.000160
MEAN_MOTION    = 15.49272321
ECCENTRICITY   = .00014041
INCLINATION    = 53.1607
RA_OF_ASC_NODE = 72.1213
ARG_OF_PERICENTER = 71.6310
MEAN_ANOMALY   = 87.2788

EPHEMERIS_TYPE = 0
CLASSIFICATION_TYPE = U
NORAD_CAT_ID   = 66261
ELEMENT_SET_NO = 999
REV_AT_EPOCH   = 461
BSTAR          = .45045822E-3
MEAN_MOTION_DOT = .24651E-3
MEAN_MOTION_DDOT = 0

CCSDS_OMM_VERS = 2.0
CREATION_DATE  = 
ORIGINATOR     = 

OBJECT_NAME    = STARLINK-35487
OBJECT_ID      = 2025-245AE
CENTER_NAME    = EARTH
REF_FRAME      = TEME
TIME_SYSTEM    = UTC
MEAN_ELEMENT_THEORY = SGP/SGP4

EPOCH          = 2025-11-21T00:00:02.000160
MEAN_MOTION    = 15.49272487
ECCENTRICITY   = .00014125
INCLINATION    = 53.1607
RA_OF_ASC_NODE = 72.1170
ARG_OF_PERICENTER = 68.5686
MEAN_ANOMALY   = 92.2579

EPHEMERIS_TYPE = 0
CLASSIFICATION_TYPE = U
NORAD_CAT_ID   = 66262
ELEMENT_SET_NO = 999
REV_AT_EPOCH   = 456
BSTAR          = .44806397E-3
MEAN_MOTION_DOT = .24517E-3
MEAN_MOTION_DDOT = 0

CCSDS_OMM_VERS = 2.0
CREATION_DATE  = 
ORIGINATOR     = 

OBJECT_NAME    = STARLINK-35801
OBJECT_ID      = 2025-247A
CENTER_NAME    = EARTH
REF_FRAME      = TEME
TIME_SYSTEM    = UTC
MEAN_ELEMENT_THEORY = SGP/SGP4

EPOCH          = 2025-11-21T00:00:02.000160
MEAN_MOTION    = 15.46126949
ECCENTRICITY   = .0001294
INCLINATION    = 53.1594
RA_OF_ASC_NODE = 340.1153
ARG_OF_PERICENTER = 98.5580
MEAN_ANOMALY   = 94.2141

EPHEMERIS_TYPE = 0
CLASSIFICATION_TYPE = U
NORAD_CAT_ID   = 66265
ELEMENT_SET_NO = 999
REV_AT_EPOCH   = 412
BSTAR          = -.45486957E-1
MEAN_MOTION_DOT = -.2018671E-1
MEAN_MOTION_DDOT = 0

CCSDS_OMM_VERS = 2.0
CREATION_DATE  = 
ORIGINATOR     = 

OBJECT_NAME    = STARLINK-35056
OBJECT_ID      = 2025-247B
CENTER_NAME    = EARTH
REF_FRAME      = TEME
TIME_SYSTEM    = UTC
MEAN_ELEMENT_THEORY = SGP/SGP4

EPOCH          = 2025-11-21T00:00:02.000160
MEAN_MOTION    = 15.46111027
ECCENTRICITY   = .0001374
INCLINATION    = 53.1592
RA_OF_ASC_NODE = 340.1119
ARG_OF_PERICENTER = 81.3089
MEAN_ANOMALY   = 113.3617

EPHEMERIS_TYPE = 0
CLASSIFICATION_TYPE = U
NORAD_CAT_ID   = 66266
ELEMENT_SET_NO = 999
REV_AT_EPOCH   = 439
BSTAR          = -.44917063E-1
MEAN_MOTION_DOT = -.1995149E-1
MEAN_MOTION_DDOT = 0

CCSDS_OMM_VERS = 2.0
CREATION_DATE  = 
ORIGINATOR     = 

OBJECT_NAME    = STARLINK-35550
OBJECT_ID      = 2025-247C
CENTER_NAME    = EARTH
REF_FRAME      = TEME
TIME_SYSTEM    = UTC
MEAN_ELEMENT_THEORY = SGP/SGP4

EPOCH          = 2025-11-21T00:00:02.000160
MEAN_MOTION    = 15.51317600
ECCENTRICITY   = .000155
INCLINATION    = 53.1596
RA_OF_ASC_NODE = 338.9670
ARG_OF_PERICENTER = 82.9657
MEAN_ANOMALY   = 308.1915

EPHEMERIS_TYPE = 0
CLASSIFICATION_TYPE = U
NORAD_CAT_ID   = 66267
ELEMENT_SET_NO = 999
REV_AT_EPOCH   = 407
BSTAR          = -.39312393E-1
MEAN_MOTION_DOT = -.2087989E-1
MEAN_MOTION_DDOT = 0

CCSDS_OMM_VERS = 2.0
CREATION_DATE  = 
ORIGINATOR     = 

OBJECT_NAME    = STARLINK-35069
OBJECT_ID      = 2025-247D
CENTER_NAME    = EARTH
REF_FRAME      = TEME
TIME_SYSTEM    = UTC
MEAN_ELEMENT_THEORY = SGP/SGP4

EPOCH          = 2025-11-21T00:00:02.000160
MEAN_MOTION    = 15.48470929
ECCENTRICITY   = .00014747
INCLINATION    = 53.1590
RA_OF_ASC_NODE = 340.0914
ARG_OF_PERICENTER = 109.5682
MEAN_ANOMALY   = 94.6247

EPHEMERIS_TYPE = 0
CLASSIFICATION_TYPE = U
NORAD_CAT_ID   = 66268
ELEMENT_SET_NO = 999
REV_AT_EPOCH   = 434
BSTAR          = -.42050947E-1
MEAN_MOTION_DOT = -.2025176E-1
MEAN_MOTION_DDOT = 0

CCSDS_OMM_VERS = 2.0
CREATION_DATE  = 
ORIGINATOR     = 

OBJECT_NAME    = STARLINK-34910
OBJECT_ID      = 2025-247E
CENTER_NAME    = EARTH
REF_FRAME      = TEME
TIME_SYSTEM    = UTC
MEAN_ELEMENT_THEORY = SGP/SGP4

EPOCH          = 2025-11-21T00:00:02.000160
MEAN_MOTION    = 15.51323661
ECCENTRICITY   = .00012801
INCLINATION    = 53.1593
RA_OF_ASC_NODE = 338.9713
ARG_OF_PERICENTER = 76.4741
MEAN_ANOMALY   = 312.7659

EPHEMERIS_TYPE = 0
CLASSIFICATION_TYPE = U
NORAD_CAT_ID   = 66269
ELEMENT_SET_NO = 999
REV_AT_EPOCH   = 439
BSTAR          = -.39664604E-1
MEAN_MOTION_DOT = -.2104839E-1
MEAN_MOTION_DDOT = 0

CCSDS_OMM_VERS = 2.0
CREATION_DATE  = 
ORIGINATOR     = 

OBJECT_NAME    = STARLINK-35757
OBJECT_ID      = 2025-247F
CENTER_NAME    = EARTH
REF_FRAME      = TEME
TIME_SYSTEM    = UTC
MEAN_ELEMENT_THEORY = SGP/SGP4

EPOCH          = 2025-11-21T00:00:02.000160
MEAN_MOTION    = 15.48470857
ECCENTRICITY   = .00014054
INCLINATION    = 53.1591
RA_OF_ASC_NODE = 340.0883
ARG_OF_PERICENTER = 104.1932
MEAN_ANOMALY   = 101.9092

EPHEMERIS_TYPE = 0
CLASSIFICATION_TYPE = U
NORAD_CAT_ID   = 66270
ELEMENT_SET_NO = 999
REV_AT_EPOCH   = 444
BSTAR          = -.42338306E-1
MEAN_MOTION_DOT = -.2037464E-1
MEAN_MOTION_DDOT = 0

CCSDS_OMM_VERS = 2.0
CREATION_DATE  = 
ORIGINATOR     = 

OBJECT_NAME    = STARLINK-35745
OBJECT_ID      = 2025-247G
CENTER_NAME    = EARTH
REF_FRAME      = TEME
TIME_SYSTEM    = UTC
MEAN_ELEMENT_THEORY = SGP/SGP4

EPOCH          = 2025-11-21T00:00:02.000160
MEAN_MOTION    = 15.49317617
ECCENTRICITY   = .0001341
INCLINATION    = 53.1591
RA_OF_ASC_NODE = 340.0836
ARG_OF_PERICENTER = 87.8112
MEAN_ANOMALY   = 120.5002

EPHEMERIS_TYPE = 0
CLASSIFICATION_TYPE = U
NORAD_CAT_ID   = 66271
ELEMENT_SET_NO = 999
REV_AT_EPOCH   = 444
BSTAR          = -.18331791E-3
MEAN_MOTION_DOT = -.10633E-3
MEAN_MOTION_DDOT = 0

CCSDS_OMM_VERS = 2.0
CREATION_DATE  = 
ORIGINATOR     = 

OBJECT_NAME    = STARLINK-35741
OBJECT_ID      = 2025-247H
CENTER_NAME    = EARTH
REF_FRAME      = TEME
TIME_SYSTEM    = UTC
MEAN_ELEMENT_THEORY = SGP/SGP4

EPOCH          = 2025-11-21T00:00:02.000160
MEAN_MOTION    = 15.49317675
ECCENTRICITY   = .00012946
INCLINATION    = 53.1592
RA_OF_ASC_NODE = 340.0788
ARG_OF_PERICENTER = 89.4655
MEAN_ANOMALY   = 120.7661

EPHEMERIS_TYPE = 0
CLASSIFICATION_TYPE = U
NORAD_CAT_ID   = 66272
ELEMENT_SET_NO = 999
REV_AT_EPOCH   = 444
BSTAR          = -.34180936E-3
MEAN_MOTION_DOT = -.19417E-3
MEAN_MOTION_DDOT = 0

CCSDS_OMM_VERS = 2.0
CREATION_DATE  = 
ORIGINATOR     = 

OBJECT_NAME    = STARLINK-35730
OBJECT_ID      = 2025-247J
CENTER_NAME    = EARTH
REF_FRAME      = TEME
TIME_SYSTEM    = UTC
MEAN_ELEMENT_THEORY = SGP/SGP4

EPOCH          = 2025-11-21T00:00:02.000160
MEAN_MOTION    = 15.49249914
ECCENTRICITY   = .00012428
INCLINATION    = 53.1592
RA_OF_ASC_NODE = 340.0752
ARG_OF_PERICENTER = 92.3626
MEAN_ANOMALY   = 119.8137

EPHEMERIS_TYPE = 0
CLASSIFICATION_TYPE = U
NORAD_CAT_ID   = 66273
ELEMENT_SET_NO = 999
REV_AT_EPOCH   = 444
BSTAR          = .15082872E-2
MEAN_MOTION_DOT = .84169E-3
MEAN_MOTION_DDOT = 0

