STARLINK-35420          
1 66260U 25245AC  25325.00002315  .00036195  00000+0  65678-3 0  9994
2 66260  53.1606  72.1293 0000710  92.2250  62.7993 15.49267288  4614
STARLINK-35536          
1 66261U 25245AD  25325.00002315  .00024651  00000+0  45046-3 0  9996
2 66261  53.1607  72.1213 0001404  71.6310  87.2788 15.49272321  4615
STARLINK-35487          
1 66262U 25245AE  25325.00002315  .00024517  00000+0  44806-3 0  9991
2 66262  53.1607  72.1170 0001412  68.5686  92.2579 15.49272487  4569
STARLINK-35801          
1 66265U 25247A   25325.00002315 -.02018671  00000+0 -45487-1 0  9998
2 66265  53.1594 340.1153 0001294  98.5580  94.2141 15.46126949  4127
STARLINK-35056          
1 66266U 25247B   25325.00002315 -.01995149  00000+0 -44917-1 0  9999
2 66266  53.1592 340.1119 0001374  81.3089 113.3617 15.46111027  4392
STARLINK-35550          
1 66267U 25247C   25325.00002315 -.02087989  00000+0 -39312-1 0  9998
2 66267  53.1596 338.9670 0001550  82.9657 308.1915 15.51317600  4079
STARLINK-35069          
1 66268U 25247D   25325.00002315 -.02025176  00000+0 -42051-1 0  9993
2 66268  53.1590 340.0914 0001474 109.5682  94.6247 15.48470929  4343
STARLINK-34910          
1 66269U 25247E   25325.00002315 -.02104839  00000+0 -39665-1 0  9995
2 66269  53.1593 338.9713 0001280  76.4741 312.7659 15.51323661  4393
STARLINK-35757          
1 66270U 25247F   25325.00002315 -.02037464  00000+0 -42338-1 0  9997
2 66270  53.1591 340.0883 0001405 104.1932 101.9092 15.48470857  4446
STARLINK-35745          
1 66271U 25247G   25325.00002315 -.00010633  00000+0 -18332-3 0  9994
2 66271  53.1591 340.0836 0001341  87.8112 120.5002 15.49317617  4444
STARLINK-35741          
1 66272U 25247H   25325.00002315 -.00019417  00000+0 -34181-3 0  9994
2 66272  53.1592 340.0788 0001294  89.4655 120.7661 15.49317675  4446
STARLINK-35730          
1 66273U 25247J   25325.00002315  .00084169  00000+0  15083-2 0  9998
2 66273  53.1592 340.0752 0001242  92.3626 119.8137 15.49249914  4449
